start=new Date('2022-12-15T00:00:00.000Z').valueOf();
sats=[{"CLASSIFICATION_TYPE":"U","REF_FRAME":"TEME","TIME_SYSTEM":"UTC","ECCENTRICITY":"0.00019020","RCS_SIZE":"LARGE","MEAN_MOTION_DOT":"-0.00000716","EPOCH":"2022-12-14T20:23:42.141984","EPHEMERIS_TYPE":"0","FILE":"3699647","TLE_LINE2":"2 46043  53.0549  27.6131 0001902  52.2331 307.8830 15.06393760130905","TLE_LINE1":"1 46043U 20055S   22348.84979331 -.00000716  00000-0 -29134-4 0  9991","APOAPSIS":"548.550","MEAN_ELEMENT_THEORY":"SGP4","ELEMENT_SET_NO":"999","OBJECT_NAME":"STARLINK-1582","MEAN_ANOMALY":"307.8830","OBJECT_ID":"2020-055S","LAUNCH_DATE":"2020-08-07","REV_AT_EPOCH":"13090","MEAN_MOTION":"15.06393760","ARG_OF_PERICENTER":"52.2331","BSTAR":"-0.00002913400000","INCLINATION":"53.0549","PERIAPSIS":"545.915","GP_ID":"220406774","COUNTRY_CODE":"US","DECAY_DATE":null,"SEMIMAJOR_AXIS":"6925.368","MEAN_MOTION_DDOT":"0.0000000000000","PERIOD":"95.593","NORAD_CAT_ID":"46043","CENTER_NAME":"EARTH","RA_OF_ASC_NODE":"27.6131","SITE":"AFETR","OBJECT_TYPE":"PAYLOAD"},{"ELEMENT_SET_NO":"999","MEAN_ELEMENT_THEORY":"SGP4","APOAPSIS":"548.422","TLE_LINE1":"1 46044U 20055T   22348.59819641 -.00000189  00000-0  62343-5 0  9994","FILE":"3699163","TLE_LINE2":"2 46044  53.0549  28.7403 0001729  60.4543 299.6618 15.06396413130363","EPOCH":"2022-12-14T14:21:24.169824","EPHEMERIS_TYPE":"0","RCS_SIZE":"LARGE","MEAN_MOTION_DOT":"-0.00000189","ECCENTRICITY":"0.00017290","TIME_SYSTEM":"UTC","CLASSIFICATION_TYPE":"U","REF_FRAME":"TEME","OBJECT_TYPE":"PAYLOAD","CENTER_NAME":"EARTH","RA_OF_ASC_NODE":"28.7403","SITE":"AFETR","MEAN_MOTION_DDOT":"0.0000000000000","PERIOD":"95.592","NORAD_CAT_ID":"46044","DECAY_DATE":null,"COUNTRY_CODE":"US","SEMIMAJOR_AXIS":"6925.360","GP_ID":"220375007","INCLINATION":"53.0549","PERIAPSIS":"546.027","ARG_OF_PERICENTER":"60.4543","MEAN_MOTION":"15.06396413","BSTAR":"0.00000623430000","REV_AT_EPOCH":"13036","LAUNCH_DATE":"2020-08-07","OBJECT_ID":"2020-055T","MEAN_ANOMALY":"299.6618","OBJECT_NAME":"STARLINK-1584"},{"COUNTRY_CODE":"US","DECAY_DATE":null,"SEMIMAJOR_AXIS":"6925.346","GP_ID":"220405278","INCLINATION":"53.0571","PERIAPSIS":"545.665","MEAN_MOTION":"15.06400841","ARG_OF_PERICENTER":"44.4974","BSTAR":"0.00005780100000","REV_AT_EPOCH":"13088","OBJECT_ID":"2020-055U","LAUNCH_DATE":"2020-08-07","OBJECT_NAME":"STARLINK-1591","MEAN_ANOMALY":"315.6194","OBJECT_TYPE":"PAYLOAD","CENTER_NAME":"EARTH","RA_OF_ASC_NODE":"27.8062","SITE":"AFETR","PERIOD":"95.592","MEAN_MOTION_DDOT":"0.0000000000000","NORAD_CAT_ID":"46045","EPOCH":"2022-12-14T19:25:18.691968","EPHEMERIS_TYPE":"0","RCS_SIZE":"LARGE","MEAN_MOTION_DOT":"0.00000579","ECCENTRICITY":"0.00022330","TIME_SYSTEM":"UTC","CLASSIFICATION_TYPE":"U","REF_FRAME":"TEME","ELEMENT_SET_NO":"999","APOAPSIS":"548.757","MEAN_ELEMENT_THEORY":"SGP4","TLE_LINE1":"1 46045U 20055U   22348.80924412  .00000579  00000-0  57801-4 0  9996","FILE":"3699647","TLE_LINE2":"2 46045  53.0571  27.8062 0002233  44.4974 315.6194 15.06400841130887"},{"ELEMENT_SET_NO":"999","FILE":"3698874","TLE_LINE2":"2 46047  53.0569  19.1904 0002337  49.7446 310.3747 15.06398129130995","TLE_LINE1":"1 46047U 20055W   22348.49685319 -.00001315  00000-0 -69362-4 0  9999","MEAN_ELEMENT_THEORY":"SGP4","APOAPSIS":"548.838","EPOCH":"2022-12-14T11:55:28.115616","EPHEMERIS_TYPE":"0","CLASSIFICATION_TYPE":"U","REF_FRAME":"TEME","TIME_SYSTEM":"UTC","ECCENTRICITY":"0.00023370","RCS_SIZE":"LARGE","MEAN_MOTION_DOT":"-0.00001315","CENTER_NAME":"EARTH","RA_OF_ASC_NODE":"19.1904","SITE":"AFETR","OBJECT_TYPE":"PAYLOAD","MEAN_MOTION_DDOT":"0.0000000000000","PERIOD":"95.592","NORAD_CAT_ID":"46047","INCLINATION":"53.0569","PERIAPSIS":"545.601","GP_ID":"220361482","COUNTRY_CODE":"US","DECAY_DATE":null,"SEMIMAJOR_AXIS":"6925.354","MEAN_ANOMALY":"310.3747","OBJECT_NAME":"STARLINK-1524","OBJECT_ID":"2020-055W","LAUNCH_DATE":"2020-08-07","REV_AT_EPOCH":"13099","MEAN_MOTION":"15.06398129","ARG_OF_PERICENTER":"49.7446","BSTAR":"-0.00006936200000"},{"TLE_LINE1":"1 46048U 20055X   22348.82489135  .00007302  00000-0  50818-3 0  9990","MEAN_ELEMENT_THEORY":"SGP4","APOAPSIS":"548.320","FILE":"3699647","TLE_LINE2":"2 46048  53.0550  17.7343 0001729  57.6932 302.4224 15.06429660131021","ELEMENT_SET_NO":"999","ECCENTRICITY":"0.00017290","RCS_SIZE":"LARGE","MEAN_MOTION_DOT":"0.00007302","CLASSIFICATION_TYPE":"U","REF_FRAME":"TEME","TIME_SYSTEM":"UTC","EPOCH":"2022-12-14T19:47:50.612640","EPHEMERIS_TYPE":"0","MEAN_MOTION_DDOT":"0.0000000000000","PERIOD":"95.590","NORAD_CAT_ID":"46048","CENTER_NAME":"EARTH","RA_OF_ASC_NODE":"17.7343","SITE":"AFETR","OBJECT_TYPE":"PAYLOAD","REV_AT_EPOCH":"13102","ARG_OF_PERICENTER":"57.6932","MEAN_MOTION":"15.06429660","BSTAR":"0.00050818000000","MEAN_ANOMALY":"302.4224","OBJECT_NAME":"STARLINK-1527","LAUNCH_DATE":"2020-08-07","OBJECT_ID":"2020-055X","GP_ID":"220406274","COUNTRY_CODE":"US","DECAY_DATE":null,"SEMIMAJOR_AXIS":"6925.258","PERIAPSIS":"545.925","INCLINATION":"53.0550"},{"EPHEMERIS_TYPE":"0","EPOCH":"2022-12-14T19:42:34.194240","ECCENTRICITY":"0.00023410","MEAN_MOTION_DOT":"0.00000092","RCS_SIZE":"LARGE","REF_FRAME":"TEME","CLASSIFICATION_TYPE":"U","TIME_SYSTEM":"UTC","ELEMENT_SET_NO":"999","TLE_LINE1":"1 46049U 20055Y   22348.82122910  .00000092  00000-0  25107-4 0  9999","APOAPSIS":"548.862","MEAN_ELEMENT_THEORY":"SGP4","FILE":"3699647","TLE_LINE2":"2 46049  53.0561  17.7488 0002341  47.9255 312.1932 15.06391015131054","GP_ID":"220407019","SEMIMAJOR_AXIS":"6925.376","COUNTRY_CODE":"US","DECAY_DATE":null,"PERIAPSIS":"545.620","INCLINATION":"53.0561","REV_AT_EPOCH":"13105","BSTAR":"0.00002510700000","MEAN_MOTION":"15.06391015","ARG_OF_PERICENTER":"47.9255","OBJECT_NAME":"STARLINK-1530","MEAN_ANOMALY":"312.1932","OBJECT_ID":"2020-055Y","LAUNCH_DATE":"2020-08-07","SITE":"AFETR","CENTER_NAME":"EARTH","RA_OF_ASC_NODE":"17.7488","OBJECT_TYPE":"PAYLOAD","NORAD_CAT_ID":"46049","MEAN_MOTION_DDOT":"0.0000000000000","PERIOD":"95.593"},{"ELEMENT_SET_NO":"999","TLE_LINE2":"2 46051  53.0577  17.8820 0001734  53.3168 306.7980 15.06396910130537","FILE":"3699059","APOAPSIS":"548.424","MEAN_ELEMENT_THEORY":"SGP4","TLE_LINE1":"1 46051U 20055AA  22348.79173571 -.00000491  00000-0 -14091-4 0  9992","EPOCH":"2022-12-14T19:00:05.965344","EPHEMERIS_TYPE":"0","TIME_SYSTEM":"UTC","CLASSIFICATION_TYPE":"U","REF_FRAME":"TEME","RCS_SIZE":"LARGE","MEAN_MOTION_DOT":"-0.00000491","ECCENTRICITY":"0.00017340","OBJECT_TYPE":"PAYLOAD","RA_OF_ASC_NODE":"17.8820","CENTER_NAME":"EARTH","SITE":"AFETR","MEAN_MOTION_DDOT":"0.0000000000000","PERIOD":"95.592","NORAD_CAT_ID":"46051","PERIAPSIS":"546.022","INCLINATION":"53.0577","DECAY_DATE":null,"COUNTRY_CODE":"US","SEMIMAJOR_AXIS":"6925.358","GP_ID":"220372838","OBJECT_ID":"2020-055AA","LAUNCH_DATE":"2020-08-07","MEAN_ANOMALY":"306.7980","OBJECT_NAME":"STARLINK-1540","ARG_OF_PERICENTER":"53.3168","MEAN_MOTION":"15.06396910","BSTAR":"-0.00001409100000","REV_AT_EPOCH":"13053"},{"APOAPSIS":"548.385","MEAN_ELEMENT_THEORY":"SGP4","TLE_LINE1":"1 46052U 20055AB  22348.77699621  .00006426  00000-0  45016-3 0  9992","FILE":"3699647","TLE_LINE2":"2 46052  53.0552  17.9552 0001600  64.6421 295.4733 15.06379236131019","ELEMENT_SET_NO":"999","MEAN_MOTION_DOT":"0.00006426","RCS_SIZE":"LARGE","ECCENTRICITY":"0.00016000","TIME_SYSTEM":"UTC","REF_FRAME":"TEME","CLASSIFICATION_TYPE":"U","EPHEMERIS_TYPE":"0","EPOCH":"2022-12-14T18:38:52.472544","NORAD_CAT_ID":"46052","PERIOD":"95.593","MEAN_MOTION_DDOT":"0.0000000000000","OBJECT_TYPE":"PAYLOAD","SITE":"AFETR","RA_OF_ASC_NODE":"17.9552","CENTER_NAME":"EARTH","BSTAR":"0.00045016000000","ARG_OF_PERICENTER":"64.6421","MEAN_MOTION":"15.06379236","REV_AT_EPOCH":"13101","LAUNCH_DATE":"2020-08-07","OBJECT_ID":"2020-055AB","MEAN_ANOMALY":"295.4733","OBJECT_NAME":"STARLINK-1541","SEMIMAJOR_AXIS":"6925.412","COUNTRY_CODE":"US","DECAY_DATE":null,"GP_ID":"220406024","PERIAPSIS":"546.169","INCLINATION":"53.0552"},{"NORAD_CAT_ID":"46053","MEAN_MOTION_DDOT":"0.0000000000000","PERIOD":"95.592","SITE":"AFETR","CENTER_NAME":"EARTH","RA_OF_ASC_NODE":"17.9395","OBJECT_TYPE":"PAYLOAD","OBJECT_NAME":"STARLINK-1543","MEAN_ANOMALY":"312.1182","LAUNCH_DATE":"2020-08-07","OBJECT_ID":"2020-055AC","REV_AT_EPOCH":"13104","BSTAR":"0.00008921700000","ARG_OF_PERICENTER":"47.9989","MEAN_MOTION":"15.06403125","PERIAPSIS":"545.718","INCLINATION":"53.0551","GP_ID":"220406775","SEMIMAJOR_AXIS":"6925.339","DECAY_DATE":null,"COUNTRY_CODE":"US","FILE":"3699647","TLE_LINE2":"2 46053  53.0551  17.9395 0002145  47.9989 312.1182 15.06403125131045","TLE_LINE1":"1 46053U 20055AC  22348.78067591  .00001047  00000-0  89217-4 0  9995","MEAN_ELEMENT_THEORY":"SGP4","APOAPSIS":"548.689","ELEMENT_SET_NO":"999","REF_FRAME":"TEME","CLASSIFICATION_TYPE":"U","TIME_SYSTEM":"UTC","ECCENTRICITY":"0.00021450","MEAN_MOTION_DOT":"0.00001047","RCS_SIZE":"LARGE","EPHEMERIS_TYPE":"0","EPOCH":"2022-12-14T18:44:10.398624"},{"EPHEMERIS_TYPE":"0","EPOCH":"2022-12-14T18:54:47.259936","MEAN_MOTION_DOT":"-0.00001316","RCS_SIZE":"LARGE","ECCENTRICITY":"0.00013840","TIME_SYSTEM":"UTC","REF_FRAME":"TEME","CLASSIFICATION_TYPE":"U","ELEMENT_SET_NO":"999","MEAN_ELEMENT_THEORY":"SGP4","APOAPSIS":"548.183","TLE_LINE1":"1 46054U 20055AD  22348.78804699 -.00001316  00000-0 -69471-4 0  9995","FILE":"3699098","TLE_LINE2":"2 46054  53.0559  17.9076 0001384  79.7547 280.3598 15.06396378130505","SEMIMAJOR_AXIS":"6925.360","DECAY_DATE":null,"COUNTRY_CODE":"US","GP_ID":"220373797","INCLINATION":"53.0559","PERIAPSIS":"546.266","BSTAR":"-0.00006947100000","MEAN_MOTION":"15.06396378","ARG_OF_PERICENTER":"79.7547","REV_AT_EPOCH":"13050","LAUNCH_DATE":"2020-08-07","OBJECT_ID":"2020-055AD","OBJECT_NAME":"STARLINK-1548","MEAN_ANOMALY":"280.3598","OBJECT_TYPE":"PAYLOAD","SITE":"AFETR","RA_OF_ASC_NODE":"17.9076","CENTER_NAME":"EARTH","NORAD_CAT_ID":"46054","MEAN_MOTION_DDOT":"0.0000000000000","PERIOD":"95.592"}];
